start=new Date('2021-11-27T00:00:00.000Z').valueOf();
sats=[{"NORAD_CAT_ID":"48145","INCLINATION":"53.0567","PERIAPSIS":"546.106","PERIOD":"95.592","TIME_SYSTEM":"UTC","APOAPSIS":"548.330","ELEMENT_SET_NO":"999","REF_FRAME":"TEME","ARG_OF_PERICENTER":"65.6325","MEAN_MOTION_DOT":"0.00000560","OBJECT_TYPE":"PAYLOAD","CENTER_NAME":"EARTH","EPHEMERIS_TYPE":"0","ECCENTRICITY":"0.00016060","SEMIMAJOR_AXIS":"6925.353","CLASSIFICATION_TYPE":"U","EPOCH":"2021-11-26T18:49:32.378592","MEAN_MOTION_DDOT":"0.0000000000000","BSTAR":"0.00005648400000","COUNTRY_CODE":"US","MEAN_ANOMALY":"294.4832","GP_ID":"190560493","RA_OF_ASC_NODE":"332.2540","LAUNCH_DATE":"2021-04-07","FILE":"3224952","RCS_SIZE":"LARGE","MEAN_ELEMENT_THEORY":"SGP4","SITE":"AFETR","TLE_LINE1":"1 48145U 21027BF  21330.78440253  .00000560  00000-0  56484-4 0  9998","OBJECT_ID":"2021-027BF","REV_AT_EPOCH":"3698","DECAY_DATE":null,"MEAN_MOTION":"15.06398505","OBJECT_NAME":"STARLINK-2488","TLE_LINE2":"2 48145  53.0567 332.2540 0001606  65.6325 294.4832 15.06398505 36989"},{"REF_FRAME":"TEME","ARG_OF_PERICENTER":"54.9928","TIME_SYSTEM":"UTC","APOAPSIS":"548.422","ELEMENT_SET_NO":"999","NORAD_CAT_ID":"48146","INCLINATION":"53.0570","PERIOD":"95.592","PERIAPSIS":"545.965","EPHEMERIS_TYPE":"0","ECCENTRICITY":"0.00017740","SEMIMAJOR_AXIS":"6925.329","MEAN_MOTION_DOT":"-0.00001867","OBJECT_TYPE":"PAYLOAD","CENTER_NAME":"EARTH","MEAN_ANOMALY":"305.1227","GP_ID":"190559241","CLASSIFICATION_TYPE":"U","EPOCH":"2021-11-26T18:46:53.787936","BSTAR":"-0.00010641000000","COUNTRY_CODE":"US","MEAN_MOTION_DDOT":"0.0000000000000","MEAN_MOTION":"15.06406415","REV_AT_EPOCH":"3670","OBJECT_ID":"2021-027BG","DECAY_DATE":null,"OBJECT_NAME":"STARLINK-2489","TLE_LINE2":"2 48146  53.0570 352.2657 0001774  54.9928 305.1227 15.06406415 36709","RCS_SIZE":"LARGE","MEAN_ELEMENT_THEORY":"SGP4","RA_OF_ASC_NODE":"352.2657","FILE":"3224952","LAUNCH_DATE":"2021-04-07","SITE":"AFETR","TLE_LINE1":"1 48146U 21027BG  21330.78256699 -.00001867  00000-0 -10641-3 0  9995"},{"REF_FRAME":"TEME","ARG_OF_PERICENTER":"67.2458","APOAPSIS":"548.256","TIME_SYSTEM":"UTC","ELEMENT_SET_NO":"999","NORAD_CAT_ID":"48147","INCLINATION":"53.0710","PERIAPSIS":"546.126","PERIOD":"95.592","EPHEMERIS_TYPE":"0","ECCENTRICITY":"0.00015380","SEMIMAJOR_AXIS":"6925.326","MEAN_MOTION_DOT":"0.00003190","OBJECT_TYPE":"PAYLOAD","CENTER_NAME":"EARTH","MEAN_ANOMALY":"292.8693","GP_ID":"190559491","CLASSIFICATION_TYPE":"U","EPOCH":"2021-11-26T18:43:33.846240","BSTAR":"0.00023291000000","COUNTRY_CODE":"US","MEAN_MOTION_DDOT":"0.0000000000000","MEAN_MOTION":"15.06407362","REV_AT_EPOCH":"3663","OBJECT_ID":"2021-027BH","DECAY_DATE":null,"OBJECT_NAME":"STARLINK-2490","TLE_LINE2":"2 48147  53.0710 357.2055 0001538  67.2458 292.8693 15.06407362 36639","RCS_SIZE":"LARGE","MEAN_ELEMENT_THEORY":"SGP4","RA_OF_ASC_NODE":"357.2055","LAUNCH_DATE":"2021-04-07","FILE":"3224952","TLE_LINE1":"1 48147U 21027BH  21330.78025285  .00003190  00000-0  23291-3 0  9995","SITE":"AFETR"},{"CENTER_NAME":"EARTH","MEAN_MOTION_DOT":"0.00001604","OBJECT_TYPE":"PAYLOAD","SEMIMAJOR_AXIS":"6925.379","EPHEMERIS_TYPE":"0","ECCENTRICITY":"0.00015550","PERIAPSIS":"546.167","PERIOD":"95.593","NORAD_CAT_ID":"48148","INCLINATION":"53.0561","APOAPSIS":"548.321","TIME_SYSTEM":"UTC","ELEMENT_SET_NO":"999","REF_FRAME":"TEME","ARG_OF_PERICENTER":"63.9262","SITE":"AFETR","TLE_LINE1":"1 48148U 21027BJ  21330.35130970  .00001604  00000-0  12661-3 0  9994","RA_OF_ASC_NODE":"354.2164","FILE":"3224704","LAUNCH_DATE":"2021-04-07","RCS_SIZE":"LARGE","MEAN_ELEMENT_THEORY":"SGP4","OBJECT_NAME":"STARLINK-2491","TLE_LINE2":"2 48148  53.0561 354.2164 0001555  63.9262 296.1886 15.06390007 36624","OBJECT_ID":"2021-027BJ","REV_AT_EPOCH":"3662","DECAY_DATE":null,"MEAN_MOTION":"15.06390007","MEAN_MOTION_DDOT":"0.0000000000000","BSTAR":"0.00012661000000","COUNTRY_CODE":"US","CLASSIFICATION_TYPE":"U","EPOCH":"2021-11-26T08:25:53.158080","MEAN_ANOMALY":"296.1886","GP_ID":"190531426"},{"GP_ID":"190559994","MEAN_ANOMALY":"300.7297","EPOCH":"2021-11-26T19:53:13.872192","CLASSIFICATION_TYPE":"U","COUNTRY_CODE":"US","BSTAR":"0.00013498000000","MEAN_MOTION_DDOT":"0.0000000000000","MEAN_MOTION":"15.06395959","DECAY_DATE":null,"REV_AT_EPOCH":"3698","OBJECT_ID":"2021-027BK","TLE_LINE2":"2 48149  53.0514 332.0631 0001767  59.3866 300.7297 15.06395959 36988","OBJECT_NAME":"STARLINK-2492","MEAN_ELEMENT_THEORY":"SGP4","RCS_SIZE":"LARGE","FILE":"3224952","LAUNCH_DATE":"2021-04-07","RA_OF_ASC_NODE":"332.0631","SITE":"AFETR","TLE_LINE1":"1 48149U 21027BK  21330.82863278  .00001729  00000-0  13498-3 0  9998","ARG_OF_PERICENTER":"59.3866","REF_FRAME":"TEME","ELEMENT_SET_NO":"999","TIME_SYSTEM":"UTC","APOAPSIS":"548.450","INCLINATION":"53.0514","NORAD_CAT_ID":"48149","PERIAPSIS":"546.002","PERIOD":"95.592","ECCENTRICITY":"0.00017670","EPHEMERIS_TYPE":"0","SEMIMAJOR_AXIS":"6925.361","OBJECT_TYPE":"PAYLOAD","MEAN_MOTION_DOT":"0.00001729","CENTER_NAME":"EARTH"},{"GP_ID":"190558742","MEAN_ANOMALY":"305.5519","MEAN_MOTION_DDOT":"0.0000000000000","COUNTRY_CODE":"US","BSTAR":"0.00013836000000","CLASSIFICATION_TYPE":"U","EPOCH":"2021-11-26T23:09:36.736128","TLE_LINE2":"2 48150  53.0570 331.4481 0002158  54.5672 305.5519 15.06405550 37019","OBJECT_NAME":"STARLINK-2493","DECAY_DATE":null,"OBJECT_ID":"2021-027BL","REV_AT_EPOCH":"3701","MEAN_MOTION":"15.06405550","SITE":"AFETR","TLE_LINE1":"1 48150U 21027BL  21330.96500852  .00001780  00000-0  13836-3 0  9994","LAUNCH_DATE":"2021-04-07","FILE":"3224952","RA_OF_ASC_NODE":"331.4481","MEAN_ELEMENT_THEORY":"SGP4","RCS_SIZE":"LARGE","ELEMENT_SET_NO":"999","APOAPSIS":"548.691","TIME_SYSTEM":"UTC","ARG_OF_PERICENTER":"54.5672","REF_FRAME":"TEME","PERIOD":"95.592","PERIAPSIS":"545.702","INCLINATION":"53.0570","NORAD_CAT_ID":"48150","SEMIMAJOR_AXIS":"6925.332","ECCENTRICITY":"0.00021580","EPHEMERIS_TYPE":"0","CENTER_NAME":"EARTH","OBJECT_TYPE":"PAYLOAD","MEAN_MOTION_DOT":"0.00001780"},{"MEAN_ELEMENT_THEORY":"SGP4","RCS_SIZE":"LARGE","FILE":"3224952","LAUNCH_DATE":"2021-04-07","RA_OF_ASC_NODE":"331.4344","TLE_LINE1":"1 48151U 21027BM  21330.96869696 -.00000175  00000-0  71432-5 0  9995","SITE":"AFETR","MEAN_MOTION":"15.06401251","DECAY_DATE":null,"REV_AT_EPOCH":"3701","OBJECT_ID":"2021-027BM","TLE_LINE2":"2 48151  53.0562 331.4344 0001576  59.1144 301.0000 15.06401251 37017","OBJECT_NAME":"STARLINK-2503","CLASSIFICATION_TYPE":"U","EPOCH":"2021-11-26T23:14:55.417344","COUNTRY_CODE":"US","BSTAR":"0.00000714320000","MEAN_MOTION_DDOT":"0.0000000000000","MEAN_ANOMALY":"301.0000","GP_ID":"190558992","OBJECT_TYPE":"PAYLOAD","MEAN_MOTION_DOT":"-0.00000175","CENTER_NAME":"EARTH","ECCENTRICITY":"0.00015760","EPHEMERIS_TYPE":"0","SEMIMAJOR_AXIS":"6925.345","INCLINATION":"53.0562","NORAD_CAT_ID":"48151","PERIAPSIS":"546.118","PERIOD":"95.592","ARG_OF_PERICENTER":"59.1144","REF_FRAME":"TEME","ELEMENT_SET_NO":"999","TIME_SYSTEM":"UTC","APOAPSIS":"548.301"},{"MEAN_ANOMALY":"151.6160","GP_ID":"190559006","BSTAR":"-0.00217480000000","COUNTRY_CODE":"US","MEAN_MOTION_DDOT":"0.0000000000000","CLASSIFICATION_TYPE":"U","EPOCH":"2021-11-26T22:00:00.999936","OBJECT_NAME":"STARLINK-2567","TLE_LINE2":"2 48276  53.0528 226.6553 0002459  63.7707 151.6160 15.06405004  3582","MEAN_MOTION":"15.06405004","OBJECT_ID":"2021-036A","REV_AT_EPOCH":"358","DECAY_DATE":null,"TLE_LINE1":"1 48276U 21036A   21330.91667824 -.00032534  00000-0 -21748-2 0  9994","SITE":"AFETR","RCS_SIZE":"LARGE","MEAN_ELEMENT_THEORY":"SGP4","RA_OF_ASC_NODE":"226.6553","FILE":"3224952","LAUNCH_DATE":"2021-04-29","REF_FRAME":"TEME","ARG_OF_PERICENTER":"63.7707","APOAPSIS":"548.901","TIME_SYSTEM":"UTC","ELEMENT_SET_NO":"999","PERIAPSIS":"545.495","PERIOD":"95.592","NORAD_CAT_ID":"48276","INCLINATION":"53.0528","SEMIMAJOR_AXIS":"6925.333","EPHEMERIS_TYPE":"0","ECCENTRICITY":"0.00024590","CENTER_NAME":"EARTH","MEAN_MOTION_DOT":"-0.00032534","OBJECT_TYPE":"PAYLOAD"},{"PERIAPSIS":"368.977","PERIOD":"91.945","INCLINATION":"53.0545","NORAD_CAT_ID":"48277","ELEMENT_SET_NO":"999","APOAPSIS":"370.880","TIME_SYSTEM":"UTC","ARG_OF_PERICENTER":"58.7165","REF_FRAME":"TEME","CENTER_NAME":"EARTH","OBJECT_TYPE":"PAYLOAD","MEAN_MOTION_DOT":"-0.01036484","SEMIMAJOR_AXIS":"6748.064","ECCENTRICITY":"0.00014100","EPHEMERIS_TYPE":"0","MEAN_MOTION_DDOT":"0.0000000000000","COUNTRY_CODE":"US","BSTAR":"-0.01100100000000","EPOCH":"2021-11-26T22:00:00.999936","CLASSIFICATION_TYPE":"U","GP_ID":"190560252","MEAN_ANOMALY":"164.2990","SITE":"AFETR","TLE_LINE1":"1 48277U 21036B   21330.91667824 -.01036484  00000-0 -11001-1 0  9994","FILE":"3224952","LAUNCH_DATE":"2021-04-29","RA_OF_ASC_NODE":"197.0519","MEAN_ELEMENT_THEORY":"SGP4","RCS_SIZE":"LARGE","TLE_LINE2":"2 48277  53.0545 197.0519 0001410  58.7165 164.2990 15.66152283  3689","OBJECT_NAME":"STARLINK-2569","DECAY_DATE":null,"REV_AT_EPOCH":"368","OBJECT_ID":"2021-036B","MEAN_MOTION":"15.66152283"},{"APOAPSIS":"548.527","TIME_SYSTEM":"UTC","ELEMENT_SET_NO":"999","REF_FRAME":"TEME","ARG_OF_PERICENTER":"58.8066","PERIOD":"95.591","PERIAPSIS":"545.790","NORAD_CAT_ID":"48278","INCLINATION":"53.0519","SEMIMAJOR_AXIS":"6925.294","EPHEMERIS_TYPE":"0","ECCENTRICITY":"0.00019760","CENTER_NAME":"EARTH","MEAN_MOTION_DOT":"-0.00034197","OBJECT_TYPE":"PAYLOAD","GP_ID":"190560508","MEAN_ANOMALY":"11.6852","MEAN_MOTION_DDOT":"0.0000000000000","BSTAR":"-0.00228670000000","COUNTRY_CODE":"US","CLASSIFICATION_TYPE":"U","EPOCH":"2021-11-26T22:00:00.999936","OBJECT_NAME":"STARLINK-2543","TLE_LINE2":"2 48278  53.0519 206.6560 0001976  58.8066  11.6852 15.06417850  3626","OBJECT_ID":"2021-036C","REV_AT_EPOCH":"362","DECAY_DATE":null,"MEAN_MOTION":"15.06417850","TLE_LINE1":"1 48278U 21036C   21330.91667824 -.00034197  00000-0 -22867-2 0  9996","SITE":"AFETR","RA_OF_ASC_NODE":"206.6560","LAUNCH_DATE":"2021-04-29","FILE":"3224952","RCS_SIZE":"LARGE","MEAN_ELEMENT_THEORY":"SGP4"}];
